     2.100          NAVIGATION                              RINEX VERSION / TYPE
fic2rin                                 04/08/2009 01:18:28 PGM / RUN BY / DATE
                                                            END OF HEADER
19 09  4  7 22  0  0.0  .288574956357D-04 -.909494701773D-12  .000000000000D+00
     .180000000000D+02 -.297187500000D+02  .423339062343D-08 -.217202468155D+01
    -.146403908730D-05  .542962236796D-02  .123903155327D-04  .515359382057D+04
     .252000000000D+06 -.577419996262D-07 -.493161503436D+00  .447034835815D-07
     .957735027497D+00  .142687500000D+03 -.377408919408D+00 -.787925677410D-08
    -.193936649668D-09  .100000000000D+01  .152600000000D+04  .000000000000D+00
     .240000000000D+01  .000000000000D+00 -.149011611938D-07  .180000000000D+02
     .244806000000D+06  .400000000000D+01
20 09  4  7 22  0  0.0  .859689898789D-04 -.102318153949D-11  .000000000000D+00
     .810000000000D+02 -.211562500000D+02  .552344435934D-08 -.104615169253D+00
    -.131689012051D-05  .404666108079D-02  .254996120930D-05  .515363465309D+04
     .252000000000D+06  .149011611938D-07  .150503372210D+01 -.353902578354D-07
     .942334849377D+00  .323718750000D+03  .133886882746D+01 -.890215652484D-08
    -.632169189527D-10  .100000000000D+01  .152600000000D+04  .000000000000D+00
     .240000000000D+01  .000000000000D+00 -.651925802231D-08  .810000000000D+02
     .244806000000D+06  .400000000000D+01
21 09  4  7 22  0  0.0  .204266980290D-04 -.204636307899D-11  .000000000000D+00
     .650000000000D+02  .106843750000D+03  .511985611970D-08  .103762199506D+01
     .568665564060D-05  .149575254181D-01  .888668000698D-05  .515363375282D+04
     .252000000000D+06 -.102445483208D-06  .500154048509D+00  .156462192535D-06
     .934684462228D+00  .193781250000D+03 -.262552180183D+01 -.860714423639D-08
     .391444876679D-09  .100000000000D+01  .152600000000D+04  .000000000000D+00
     .240000000000D+01  .000000000000D+00 -.116415321827D-07  .650000000000D+02
     .244806000000D+06  .400000000000D+01
22 09  4  7 22  0  0.0  .202053692192D-03 -.568434188608D-12  .000000000000D+00
     .116000000000D+03 -.334687500000D+02  .556416034104D-08 -.132153366222D+01
    -.160746276379D-05  .487369310576D-02  .221095979214D-05  .515365563011D+04
     .252000000000D+06  .279396772385D-07  .156467640943D+01  .175088644028D-06
     .940360955957D+00  .325843750000D+03 -.185546738010D+01 -.883751097495D-08
    -.115719105880D-09  .100000000000D+01  .152600000000D+04  .000000000000D+00
     .485000000000D+01  .000000000000D+00 -.181607902050D-07  .116000000000D+03
     .244806000000D+06  .400000000000D+01
23 09  4  7 22  0  0.0  .389189459383D-03  .341060513165D-12  .000000000000D+00
     .640000000000D+02 -.647187500000D+02  .419088885306D-08 -.271052650010D+01
    -.331178307533D-05  .591498508584D-02  .113844871521D-04  .515363106918D+04
     .252000000000D+06 -.108033418655D-06  .258117781877D+01  .465661287308D-07
     .970718166514D+00  .168687500000D+03  .287468341826D+01 -.776746640330D-08
    -.286440502825D-09  .100000000000D+01  .152600000000D+04  .000000000000D+00
     .240000000000D+01  .000000000000D+00 -.200234353542D-07  .640000000000D+02
     .244806000000D+06  .400000000000D+01
24 09  4  7 22  0  0.0  .179498456419D-03  .295585778076D-11  .000000000000D+00
     .800000000000D+02  .101812500000D+03  .482555814672D-08 -.332532397595D+00
     .523217022419D-05  .680704251863D-02  .805221498013D-05  .515368014336D+04
     .252000000000D+06  .223517417908D-07  .531443058885D+00 -.128522515297D-06
     .951298009472D+00  .216000000000D+03 -.642529357024D+00 -.841892211047D-08
     .642169606085D-09  .100000000000D+01  .152600000000D+04  .000000000000D+00
     .340000000000D+01  .000000000000D+00 -.139698386192D-08  .800000000000D+02
     .244806000000D+06  .400000000000D+01
25 09  4  7 22  0  0.0  .346563290805D-03  .214868123294D-10  .000000000000D+00
     .310000000000D+02  .578125000000D+02  .443339895458D-08  .166707801100D+00
     .307895243168D-05  .116219564807D-01  .100955367088D-04  .515365927124D+04
     .252000000000D+06 -.115483999252D-06 -.275510047290D+01 -.100582838058D-06
     .969261271268D+00  .194968750000D+03 -.121061466047D+01 -.820534178542D-08
     .388587614805D-09  .100000000000D+01  .152600000000D+04  .000000000000D+00
     .485000000000D+01  .000000000000D+00 -.745058059692D-08  .310000000000D+02
     .244806000000D+06  .400000000000D+01
26 09  4  7 22  0  0.0  .556032173336D-04  .204636307899D-11  .000000000000D+00
     .960000000000D+02 -.762812500000D+02  .359157817508D-08  .273860772904D+01
    -.405497848988D-05  .203382748878D-01  .133253633976D-04  .515487527847D+04
     .252000000000D+06  .335276126862D-07  .262972128665D+01 -.294297933578D-06
     .993067015330D+00  .134000000000D+03  .990428230031D+00 -.722172938544D-08
    -.343942898031D-09  .100000000000D+01  .152600000000D+04  .000000000000D+00
     .340000000000D+01  .000000000000D+00 -.651925802231D-08  .960000000000D+02
     .244806000000D+06  .400000000000D+01
27 09  4  7 22  0  0.0  .389292836189D-04  .318323145621D-11  .000000000000D+00
     .480000000000D+02  .815000000000D+02  .421517557898D-08 -.143681823389D+01
     .452622771263D-05  .209044518415D-01  .992231070995D-05  .515511963654D+04
     .252000000000D+06  .931322574615D-08 -.271895415465D+01  .562518835068D-06
     .973934972689D+00  .196531250000D+03 -.162272036575D+01 -.797711799327D-08
     .469662420468D-09  .100000000000D+01  .152600000000D+04  .000000000000D+00
     .340000000000D+01  .000000000000D+00 -.419095158577D-08  .480000000000D+02
     .244806000000D+06  .400000000000D+01
28 09  4  7 22  0  0.0 -.239359214902D-04 -.227373675443D-12  .000000000000D+00
     .600000000000D+02 -.310312500000D+02  .488306054193D-08 -.103573168400D+01
    -.149197876453D-05  .148358808365D-01  .395812094212D-05  .515363439560D+04
     .252000000000D+06  .521540641785D-07 -.158354925663D+01  .329688191414D-06
     .965757259163D+00  .304843750000D+03 -.203272361053D+01 -.853821279369D-08
    -.337156901081D-09  .100000000000D+01  .152600000000D+04  .000000000000D+00
     .340000000000D+01  .000000000000D+00 -.107102096081D-07  .600000000000D+02
     .244806000000D+06  .400000000000D+01
29 09  4  7 22  0  0.0  .713532790542D-05  .409272615798D-11  .000000000000D+00
     .750000000000D+02 -.447187500000D+02  .427803534020D-08  .106265961855D+01
    -.236928462982D-05  .339086400345D-02  .128597021103D-04  .515371431541D+04
     .252000000000D+06  .130385160446D-07 -.541156034715D+00 -.875443220139D-07
     .960179317837D+00  .131437500000D+03 -.133782863418D+01 -.796747473445D-08
    -.397159400426D-09  .100000000000D+01  .152600000000D+04  .000000000000D+00
     .240000000000D+01  .000000000000D+00 -.884756445885D-08  .750000000000D+02
     .244806000000D+06  .400000000000D+01
30 09  4  7 22  0  0.0  .137692317367D-03  .261479726760D-11  .000000000000D+00
     .980000000000D+02 -.187812500000D+02  .534950854279D-08 -.572666033496D+00
    -.886619091034D-06  .112583383452D-01  .337697565556D-05  .515360692215D+04
     .252000000000D+06 -.987201929092D-07 -.165566839545D+01  .132247805595D-06
     .951105539192D+00  .308593750000D+03  .141325584332D+01 -.887286959063D-08
    -.167506977338D-09  .100000000000D+01  .152600000000D+04  .000000000000D+00
     .240000000000D+01  .000000000000D+00 -.791624188423D-08  .980000000000D+02
     .244806000000D+06  .400000000000D+01
31 09  4  7 22  0  0.0 -.570700503886D-04 -.113686837722D-11  .000000000000D+00
     .430000000000D+02  .587812500000D+02  .432160858377D-08  .185770330702D+01
     .309944152832D-05  .716853397898D-02  .920891761780D-05  .515367980766D+04
     .252000000000D+06  .987201929092D-07 -.266291825673D+01 -.800937414169D-07
     .972305437018D+00  .200531250000D+03 -.115609084053D+01 -.787068498848D-08
     .350728894981D-09  .100000000000D+01  .152600000000D+04  .000000000000D+00
     .240000000000D+01  .000000000000D+00 -.130385160446D-07  .430000000000D+02
     .244806000000D+06  .400000000000D+01
32 09  4  7 22  0  0.0  .277538783848D-03 -.488853402203D-11  .000000000000D+00
     .700000000000D+01 -.417500000000D+02  .494413451448D-08  .274764178946D+01
    -.236183404922D-05  .133770212997D-01  .256672501564D-05  .515359457397D+04
     .252000000000D+06  .312924385071D-06  .161361724244D+01  .614672899246D-07
     .964306743704D+00  .330250000000D+03 -.117984002672D+01 -.835213361418D-08
    -.201436962087D-09  .100000000000D+01  .152600000000D+04  .000000000000D+00
     .240000000000D+01  .000000000000D+00 -.325962901115D-08  .700000000000D+01
     .244806000000D+06  .400000000000D+01
22 09  4  7 21 59 44.0  .202052295208D-03 -.568434188608D-12  .000000000000D+00
     .000000000000D+00 -.334687500000D+02  .556416034104D-08 -.132386766317D+01
    -.160746276379D-05  .487369461916D-02  .221095979214D-05  .515365563965D+04
     .251984000000D+06  .279396772385D-07  .156467654109D+01  .175088644028D-06
     .940360970586D+00  .325843750000D+03 -.185546722064D+01 -.883751097495D-08
    -.115719105880D-09  .100000000000D+01  .152600000000D+04  .000000000000D+00
     .240000000000D+01  .000000000000D+00 -.181607902050D-07  .000000000000D+00
     .246546000000D+06  .400000000000D+01
26 09  4  7 21 59 12.0  .555985607207D-04  .193267624127D-11  .000000000000D+00
     .140000000000D+02 -.762812500000D+02  .359122101734D-08  .273161148718D+01
    -.405497848988D-05  .203382684849D-01  .133253633976D-04  .515487528229D+04
     .251952000000D+06  .335276126862D-07  .262972163190D+01 -.294297933578D-06
     .993067050440D+00  .134000000000D+03  .990428162737D+00 -.722137222771D-08
    -.343228582562D-09  .100000000000D+01  .152600000000D+04  .000000000000D+00
     .240000000000D+01  .000000000000D+00 -.651925802231D-08  .140000000000D+02
     .247986000000D+06  .400000000000D+01
